ONEWEB-0020             
1 45133U 20008C   25287.86225918 -.00000526  00000+0 -15435-2 0  9995
2 45133  87.8760  85.1677 0001776  88.6061 271.5270 13.10376086276215
ONEWEB-0021             
1 45134U 20008D   25287.87721681  .00000307  00000+0  84424-3 0  9995
2 45134  87.8753  85.1980 0001571  95.1262 265.0045 13.10375671276525
ONEWEB-0023             
1 45136U 20008F   25287.73529205  .00000706  00000+0  19846-2 0  9998
2 45136  87.8752  85.2086 0001614  82.5060 277.6251 13.10375055275936
ONEWEB-0024             
1 45137U 20008G   25287.47880628 -.00000601  00000+0 -17587-2 0  9995
2 45137  87.8770  85.2179 0001617  94.9018 265.2294 13.10374765276065
ONEWEB-0025             
1 45138U 20008H   25287.87803759  .00000388  00000+0  10738-2 0  9991
2 45138  87.8766  85.1467 0001082  81.4388 278.6862 13.10376405276441
ONEWEB-0026             
1 45139U 20008J   25287.78815723  .00000100  00000+0  24564-3 0  9991
2 45139  87.8820  69.9357 0001859  98.5538 261.5801 13.11413956278944
ONEWEB-0028             
1 45140U 20008K   25287.66860171 -.00011740  00000+0 -33175-1 0  9997
2 45140  87.8812  69.9786 0000726  88.9826 271.1385 13.11474449276449
ONEWEB-0032             
1 45141U 20008L   25287.89382356  .00000689  00000+0  19363-2 0  9999
2 45141  87.8748  85.1775 0001517  89.1890 270.9411 13.10371100276175
